{"fetched_at":"2026-03-29T16:36:15Z","count":15609,"tles":[{"name":"STARLINK-31691","line1":"1 59856U 24097X   26087.92715401  .00000221  00000+0  17545-4 0  9997","line2":"2 59856  43.0012 165.3027 0000501 230.8054 129.2753 15.27568345104861","category":"Starlink"}]}